ONEWEB-0668             
1 56711U 23068B   25271.57111965  .00000217  00000+0  53347-3 0  9995
2 56711  87.8979 280.8937 0002365  93.7056 266.4345 13.16595252117359
ONEWEB-0676             
1 56712U 23068C   25271.93125681  .00003160  00000+0  82273-2 0  9995
2 56712  87.8969 280.8392 0001640  82.9979 277.1339 13.16619249117325
ONEWEB-0677             
1 56713U 23068D   25271.67426565 -.00003706  00000+0 -91474-2 0  9993
2 56713  87.9248 326.5778 0001920  89.9562 270.1792 13.20788545115289
ONEWEB-0678             
1 56714U 23068E   25271.67488294 -.00000270  00000+0 -75126-3 0  9991
2 56714  87.9004 311.3701 0001524  99.0924 261.0379 13.15547600114909
ONEWEB-0679             
1 56715U 23068F   25271.44444216  .00000004  00000+0 -23474-4 0  9997
2 56715  87.8968 280.9288 0002261  80.6675 279.4711 13.16595463117285
ONEWEB-0680             
1 56716U 23068G   25271.49050646  .00000090  00000+0  18521-3 0  9993
2 56716  87.9178 296.1830 0002506  92.2888 267.8533 13.21826488116528
ONEWEB-0681             
1 56717U 23068H   25271.54413225  .00000008  00000+0 -11772-4 0  9998
2 56717  87.9180 296.1896 0001855  58.2490 301.8824 13.21825777116523
ONEWEB-0682             
1 56718U 23068J   25271.47286502  .00000065  00000+0  13806-3 0  9998
2 56718  87.8995 311.4298 0002353  93.0202 267.1197 13.15549200115046
